[{"OBJECT_NAME":"STARLINK-2245","OBJECT_ID":"2021-041AN","EPOCH":"2025-08-17T13:40:30.470304","MEAN_MOTION":15.06407102,"ECCENTRICITY":0.0001252,"INCLINATION":53.0577,"RA_OF_ASC_NODE":327.9503,"ARG_OF_PERICENTER":86.009,"MEAN_ANOMALY":274.1042,"EPHEMERIS_TYPE":0,"CLASSIFICATION_TYPE":"U","NORAD_CAT_ID":48589,"ELEMENT_SET_NO":999,"REV_AT_EPOCH":23443,"BSTAR":0.00019105,"MEAN_MOTION_DOT":2.566e-5,"MEAN_MOTION_DDOT":0},{"OBJECT_NAME":"STARLINK-2249","OBJECT_ID":"2021-041AR","EPOCH":"2025-08-17T14:00:27.150048","MEAN_MOTION":15.0640577,"ECCENTRICITY":0.0001429,"INCLINATION":53.0538,"RA_OF_ASC_NODE":338.1233,"ARG_OF_PERICENTER":89.2735,"MEAN_ANOMALY":270.8418,"EPHEMERIS_TYPE":0,"CLASSIFICATION_TYPE":"U","NORAD_CAT_ID":48592,"ELEMENT_SET_NO":999,"REV_AT_EPOCH":23459,"BSTAR":0.00015034,"MEAN_MOTION_DOT":1.959e-5,"MEAN_MOTION_DDOT":0},{"OBJECT_NAME":"STARLINK-2250","OBJECT_ID":"2021-041AS","EPOCH":"2025-08-17T13:39:10.752480","MEAN_MOTION":15.06399275,"ECCENTRICITY":0.0001059,"INCLINATION":53.0549,"RA_OF_ASC_NODE":337.9546,"ARG_OF_PERICENTER":100.6885,"MEAN_ANOMALY":259.4223,"EPHEMERIS_TYPE":0,"CLASSIFICATION_TYPE":"U","NORAD_CAT_ID":48593,"ELEMENT_SET_NO":999,"REV_AT_EPOCH":23429,"BSTAR":7.4763e-5,"MEAN_MOTION_DOT":8.32e-6,"MEAN_MOTION_DDOT":0},{"OBJECT_NAME":"STARLINK-2251","OBJECT_ID":"2021-041AT","EPOCH":"2025-08-17T14:20:19.808736","MEAN_MOTION":15.06403104,"ECCENTRICITY":0.0001366,"INCLINATION":53.0571,"RA_OF_ASC_NODE":307.9124,"ARG_OF_PERICENTER":88.5131,"MEAN_ANOMALY":271.6014,"EPHEMERIS_TYPE":0,"CLASSIFICATION_TYPE":"U","NORAD_CAT_ID":48594,"ELEMENT_SET_NO":999,"REV_AT_EPOCH":23472,"BSTAR":4.2288e-5,"MEAN_MOTION_DOT":3.49e-6,"MEAN_MOTION_DDOT":0},{"OBJECT_NAME":"STARLINK-2252","OBJECT_ID":"2021-041AU","EPOCH":"2025-08-17T13:12:38.844576","MEAN_MOTION":15.06398965,"ECCENTRICITY":0.0001125,"INCLINATION":53.0569,"RA_OF_ASC_NODE":338.0345,"ARG_OF_PERICENTER":91.3537,"MEAN_ANOMALY":268.758,"EPHEMERIS_TYPE":0,"CLASSIFICATION_TYPE":"U","NORAD_CAT_ID":48595,"ELEMENT_SET_NO":999,"REV_AT_EPOCH":23556,"BSTAR":0.00011681,"MEAN_MOTION_DOT":1.459e-5,"MEAN_MOTION_DDOT":0},{"OBJECT_NAME":"STARLINK-2253","OBJECT_ID":"2021-041AV","EPOCH":"2025-08-17T13:44:29.159808","MEAN_MOTION":15.06400874,"ECCENTRICITY":0.000125,"INCLINATION":53.0535,"RA_OF_ASC_NODE":337.936,"ARG_OF_PERICENTER":76.6452,"MEAN_ANOMALY":283.4677,"EPHEMERIS_TYPE":0,"CLASSIFICATION_TYPE":"U","NORAD_CAT_ID":48596,"ELEMENT_SET_NO":999,"REV_AT_EPOCH":23475,"BSTAR":0.00025324,"MEAN_MOTION_DOT":3.493e-5,"MEAN_MOTION_DDOT":0},{"OBJECT_NAME":"STARLINK-2255","OBJECT_ID":"2021-041AW","EPOCH":"2025-08-17T13:55:05.876832","MEAN_MOTION":15.06409389,"ECCENTRICITY":0.000134,"INCLINATION":53.0527,"RA_OF_ASC_NODE":337.904,"ARG_OF_PERICENTER":97.7563,"MEAN_ANOMALY":262.3578,"EPHEMERIS_TYPE":0,"CLASSIFICATION_TYPE":"U","NORAD_CAT_ID":48597,"ELEMENT_SET_NO":999,"REV_AT_EPOCH":23556,"BSTAR":0.00029949,"MEAN_MOTION_DOT":4.183e-5,"MEAN_MOTION_DDOT":0},{"OBJECT_NAME":"STARLINK-2713","OBJECT_ID":"2021-041BB","EPOCH":"2025-08-17T12:14:55.518720","MEAN_MOTION":15.06400414,"ECCENTRICITY":0.0001295,"INCLINATION":53.055,"RA_OF_ASC_NODE":313.2173,"ARG_OF_PERICENTER":91.6348,"MEAN_ANOMALY":268.479,"EPHEMERIS_TYPE":0,"CLASSIFICATION_TYPE":"U","NORAD_CAT_ID":48602,"ELEMENT_SET_NO":999,"REV_AT_EPOCH":23589,"BSTAR":7.3628e-5,"MEAN_MOTION_DOT":8.15e-6,"MEAN_MOTION_DDOT":0},{"OBJECT_NAME":"STARLINK-2714","OBJECT_ID":"2021-041BC","EPOCH":"2025-08-17T11:45:01.548864","MEAN_MOTION":15.06400758,"ECCENTRICITY":0.0001344,"INCLINATION":53.0554,"RA_OF_ASC_NODE":308.3076,"ARG_OF_PERICENTER":80.3788,"MEAN_ANOMALY":279.7352,"EPHEMERIS_TYPE":0,"CLASSIFICATION_TYPE":"U","NORAD_CAT_ID":48603,"ELEMENT_SET_NO":999,"REV_AT_EPOCH":23597,"BSTAR":0.00032543,"MEAN_MOTION_DOT":4.569e-5,"MEAN_MOTION_DDOT":0},{"OBJECT_NAME":"STARLINK-2757","OBJECT_ID":"2021-041BD","EPOCH":"2025-08-17T13:23:15.927072","MEAN_MOTION":15.06397405,"ECCENTRICITY":0.000114,"INCLINATION":53.0563,"RA_OF_ASC_NODE":338.0032,"ARG_OF_PERICENTER":91.0281,"MEAN_ANOMALY":269.0839,"EPHEMERIS_TYPE":0,"CLASSIFICATION_TYPE":"U","NORAD_CAT_ID":48604,"ELEMENT_SET_NO":999,"REV_AT_EPOCH":23556,"BSTAR":9.9158e-7,"MEAN_MOTION_DOT":-2.67e-6,"MEAN_MOTION_DDOT":0},{"OBJECT_NAME":"STARLINK-2739","OBJECT_ID":"2021-044B","EPOCH":"2025-08-17T11:53:42.641088","MEAN_MOTION":15.06378233,"ECCENTRICITY":8.29e-5,"INCLINATION":53.0523,"RA_OF_ASC_NODE":313.2942,"ARG_OF_PERICENTER":70.9876,"MEAN_ANOMALY":289.1203,"EPHEMERIS_TYPE":0,"CLASSIFICATION_TYPE":"U","NORAD_CAT_ID":48639,"ELEMENT_SET_NO":999,"REV_AT_EPOCH":23300,"BSTAR":-0.00018183,"MEAN_MOTION_DOT":-2.987e-5,"MEAN_MOTION_DDOT":0},{"OBJECT_NAME":"STARLINK-2736","OBJECT_ID":"2021-044C","EPOCH":"2025-08-17T13:18:40.514976","MEAN_MOTION":15.06396867,"ECCENTRICITY":0.0001098,"INCLINATION":53.0565,"RA_OF_ASC_NODE":313.3001,"ARG_OF_PERICENTER":91.8614,"MEAN_ANOMALY":268.2501,"EPHEMERIS_TYPE":0,"CLASSIFICATION_TYPE":"U","NORAD_CAT_ID":48640,"ELEMENT_SET_NO":999,"REV_AT_EPOCH":23300,"BSTAR":8.3524e-5,"MEAN_MOTION_DOT":9.63e-6,"MEAN_MOTION_DDOT":0},{"OBJECT_NAME":"STARLINK-2754","OBJECT_ID":"2021-044D","EPOCH":"2025-08-17T13:36:32.046048","MEAN_MOTION":15.0640011,"ECCENTRICITY":0.0001073,"INCLINATION":53.0564,"RA_OF_ASC_NODE":317.9616,"ARG_OF_PERICENTER":89.9331,"MEAN_ANOMALY":270.1781,"EPHEMERIS_TYPE":0,"CLASSIFICATION_TYPE":"U","NORAD_CAT_ID":48641,"ELEMENT_SET_NO":999,"REV_AT_EPOCH":23294,"BSTAR":7.1737e-5,"MEAN_MOTION_DOT":7.87e-6,"MEAN_MOTION_DDOT":0},{"OBJECT_NAME":"STARLINK-2646","OBJECT_ID":"2021-044E","EPOCH":"2025-08-17T12:22:12.847008","MEAN_MOTION":15.06405739,"ECCENTRICITY":0.000115,"INCLINATION":53.056,"RA_OF_ASC_NODE":318.2026,"ARG_OF_PERICENTER":83.1117,"MEAN_ANOMALY":277.0003,"EPHEMERIS_TYPE":0,"CLASSIFICATION_TYPE":"U","NORAD_CAT_ID":48642,"ELEMENT_SET_NO":999,"REV_AT_EPOCH":23293,"BSTAR":6.2211e-5,"MEAN_MOTION_DOT":6.46e-6,"MEAN_MOTION_DDOT":0},{"OBJECT_NAME":"STARLINK-2704","OBJECT_ID":"2021-044F","EPOCH":"2025-08-17T13:29:52.075392","MEAN_MOTION":15.06393148,"ECCENTRICITY":0.0001154,"INCLINATION":53.0553,"RA_OF_ASC_NODE":317.9731,"ARG_OF_PERICENTER":86.0965,"MEAN_ANOMALY":274.0155,"EPHEMERIS_TYPE":0,"CLASSIFICATION_TYPE":"U","NORAD_CAT_ID":48643,"ELEMENT_SET_NO":999,"REV_AT_EPOCH":23294,"BSTAR":0.00030927,"MEAN_MOTION_DOT":4.327e-5,"MEAN_MOTION_DDOT":0},{"OBJECT_NAME":"STARLINK-2695","OBJECT_ID":"2021-044G","EPOCH":"2025-08-17T13:25:55.168320","MEAN_MOTION":15.06400913,"ECCENTRICITY":0.0001235,"INCLINATION":53.0572,"RA_OF_ASC_NODE":317.9964,"ARG_OF_PERICENTER":100.3054,"MEAN_ANOMALY":259.8074,"EPHEMERIS_TYPE":0,"CLASSIFICATION_TYPE":"U","NORAD_CAT_ID":48644,"ELEMENT_SET_NO":999,"REV_AT_EPOCH":23294,"BSTAR":8.9811e-5,"MEAN_MOTION_DOT":1.057e-5,"MEAN_MOTION_DDOT":0},{"OBJECT_NAME":"STARLINK-2732","OBJECT_ID":"2021-044J","EPOCH":"2025-08-17T13:15:17.773920","MEAN_MOTION":15.06397435,"ECCENTRICITY":0.0001335,"INCLINATION":53.0547,"RA_OF_ASC_NODE":318.0286,"ARG_OF_PERICENTER":114.4817,"MEAN_ANOMALY":245.6311,"EPHEMERIS_TYPE":0,"CLASSIFICATION_TYPE":"U","NORAD_CAT_ID":48646,"ELEMENT_SET_NO":999,"REV_AT_EPOCH":23294,"BSTAR":0.00010556,"MEAN_MOTION_DOT":1.291e-5,"MEAN_MOTION_DDOT":0}]
