STARLINK-2245           
1 48589U 21041AN  25229.56979711  .00002566  00000+0  19105-3 0  9994
2 48589  53.0577 327.9503 0001252  86.0090 274.1042 15.06407102234437
STARLINK-2249           
1 48592U 21041AR  25229.58364757  .00001959  00000+0  15034-3 0  9990
2 48592  53.0538 338.1233 0001429  89.2735 270.8418 15.06405770234595
STARLINK-2250           
1 48593U 21041AS  25229.56887445  .00000832  00000+0  74763-4 0  9997
2 48593  53.0549 337.9546 0001059 100.6885 259.4223 15.06399275234291
STARLINK-2251           
1 48594U 21041AT  25229.59745149  .00000349  00000+0  42288-4 0  9995
2 48594  53.0571 307.9124 0001366  88.5131 271.6014 15.06403104234724
STARLINK-2252           
1 48595U 21041AU  25229.55044959  .00001459  00000+0  11681-3 0  9998
2 48595  53.0569 338.0345 0001125  91.3537 268.7580 15.06398965235563
STARLINK-2253           
1 48596U 21041AV  25229.57255972  .00003493  00000+0  25324-3 0  9999
2 48596  53.0535 337.9360 0001250  76.6452 283.4677 15.06400874234757
STARLINK-2255           
1 48597U 21041AW  25229.57992913  .00004183  00000+0  29949-3 0  9997
2 48597  53.0527 337.9040 0001340  97.7563 262.3578 15.06409389235567
STARLINK-2713           
1 48602U 21041BB  25229.51036480  .00000815  00000+0  73628-4 0  9998
2 48602  53.0550 313.2173 0001295  91.6348 268.4790 15.06400414235896
STARLINK-2714           
1 48603U 21041BC  25229.48960126  .00004569  00000+0  32543-3 0  9998
2 48603  53.0554 308.3076 0001344  80.3788 279.7352 15.06400758235975
STARLINK-2757           
1 48604U 21041BD  25229.55782323 -.00000267  00000+0  99158-6 0  9998
2 48604  53.0563 338.0032 0001140  91.0281 269.0839 15.06397405235560
STARLINK-2739           
1 48639U 21044B   25229.49563242 -.00002987  00000+0 -18183-3 0  9997
2 48639  53.0523 313.2942 0000829  70.9876 289.1203 15.06378233233001
STARLINK-2736           
1 48640U 21044C   25229.55463559  .00000963  00000+0  83524-4 0  9998
2 48640  53.0565 313.3001 0001098  91.8614 268.2501 15.06396867233009
STARLINK-2754           
1 48641U 21044D   25229.56703757  .00000787  00000+0  71737-4 0  9994
2 48641  53.0564 317.9616 0001073  89.9331 270.1781 15.06400110232949
STARLINK-2646           
1 48642U 21044E   25229.51542647  .00000646  00000+0  62211-4 0  9990
2 48642  53.0560 318.2026 0001150  83.1117 277.0003 15.06405739232933
STARLINK-2704           
1 48643U 21044F   25229.56240828  .00004327  00000+0  30927-3 0  9990
2 48643  53.0553 317.9731 0001154  86.0965 274.0155 15.06393148232948
STARLINK-2695           
1 48644U 21044G   25229.55966630  .00001057  00000+0  89811-4 0  9990
2 48644  53.0572 317.9964 0001235 100.3054 259.8074 15.06400913232947
STARLINK-2732           
1 48646U 21044J   25229.55228905  .00001291  00000+0  10556-3 0  9997
2 48646  53.0547 318.0286 0001335 114.4817 245.6311 15.06397435232945
